ORBCOMM FM103           
1 40091U 14040F   25044.56503058  .00001170  00000+0  29010-3 0  9993
2 40091  47.0039 241.4887 0001380  83.4227 276.6816 14.57798431563123
ORBCOMM FM114           
1 41179U 15081A   25043.76847808  .00001328  00000+0  32380-3 0  9991
2 41179  47.0020 154.3724 0001962 171.8393 188.2525 14.57855688486313
ORBCOMM FM119           
1 41180U 15081B   25044.09280599  .00001117  00000+0  27861-3 0  9992
2 41180  47.0009  62.1065 0001742 246.2268 113.8435 14.57774401487611
ORBCOMM FM105           
1 41181U 15081C   25043.49748395  .00000570  00000+0  20670-3 0  9992
2 41181  47.0020  57.8173 0000828 147.4717 212.6214 14.45025032482828
ORBCOMM FM110           
1 41182U 15081D   25043.74392354  .00001716  00000+0  40786-3 0  9994
2 41182  47.0015 153.8555 0002897 278.0853  81.9704 14.57826234486184
ORBCOMM FM118           
1 41183U 15081E   25044.54941971  .00001740  00000+0  41385-3 0  9992
2 41183  47.0040 150.4800 0003382 278.5597  81.4905 14.57752388486488
ORBCOMM FM112           
1 41184U 15081F   25043.45256641  .00001567  00000+0  37602-3 0  9999
2 41184  46.9993  64.2986 0001060 236.1067 123.9718 14.57776531487463
ORBCOMM FM113           
1 41185U 15081G   25043.77199086  .00001278  00000+0  31358-3 0  9995
2 41185  47.0011  63.0958 0001381 241.9382 118.1364 14.57771140487490
